{"type": "FeatureCollection", "features": [ {"type": "Feature", "properties": {"norad_id": 34682, "name": "COSMOS 2251 DEB", "group": "cosmos-2251-debris", "lat": -39.989686837019036, "lon": -75.50160692387834, "alt_km": 689.899593091427, "timestamp": "2025-12-08T17:43:05.332797+00:00", "meta": {"OBJECT_NAME": "COSMOS 2251 DEB", "OBJECT_ID": "1993-036YC", "EPOCH": "2025-12-07T18:21:21.019104", "MEAN_MOTION": 14.58839239, "ECCENTRICITY": 0.00185867, "INCLINATION": 74.0401, "RA_OF_ASC_NODE": 92.4621, "ARG_OF_PERICENTER": 225.6975, "MEAN_ANOMALY": 285.9615, "EPHEMERIS_TYPE": 0, "CLASSIFICATION_TYPE": "U", "NORAD_CAT_ID": 34682, "ELEMENT_SET_NO": 999, "REV_AT_EPOCH": 88613, "BSTAR": 0.0015345378, "MEAN_MOTION_DOT": 7.175e-05, "MEAN_MOTION_DDOT": 0}, "tle": {"line1": "1 34682U 93036YC  25341.76482661  .00007175  00000+0  15345-2 0  9998", "line2": "2 34682  74.0401  92.4621 0018586 225.6975 285.9615 14.58839239886133"}}, "geometry": {"type": "Point", "coordinates": [-75.50160692387834, -39.989686837019036]}}, {"type": "Feature", "properties": {"norad_id": 34683, "name": "COSMOS 2251 DEB", "group": "cosmos-2251-debris", "lat": -61.1354820240454, "lon": 68.65952869662614, "alt_km": 683.4359430631757, "timestamp": "2025-12-08T17:43:05.332808+00:00", "meta": {"OBJECT_NAME": "COSMOS 2251 DEB", "OBJECT_ID": "1993-036YD", "EPOCH": "2025-12-08T02:26:16.725408", "MEAN_MOTION": 14.64381632, "ECCENTRICITY": 0.00186137, "INCLINATION": 74.0294, "RA_OF_ASC_NODE": 101.1841, "ARG_OF_PERICENTER": 216.1988, "MEAN_ANOMALY": 322.9755, "EPHEMERIS_TYPE": 0, "CLASSIFICATION_TYPE": "U", "NORAD_CAT_ID": 34683, "ELEMENT_SET_NO": 999, "REV_AT_EPOCH": 88280, "BSTAR": 0.0018374118, "MEAN_MOTION_DOT": 9.72e-05, "MEAN_MOTION_DDOT": 0}, "tle": {"line1": "1 34683U 93036YD  25342.10158247  .00009720  00000+0  18374-2 0  9991", "line2": "2 34683  74.0294 101.1841 0018613 216.1988 322.9755 14.64381632882809"}}, "geometry": {"type": "Point", "coordinates": [68.65952869662614, -61.1354820240454]}}, {"type": "Feature", "properties": {"norad_id": 34685, "name": "COSMOS 2251 DEB", "group": "cosmos-2251-debris", "lat": -4.891161930336879, "lon": -22.205292321470335, "alt_km": 702.0906908244715, "timestamp": "2025-12-08T17:43:05.332818+00:00", "meta": {"OBJECT_NAME": "COSMOS 2251 DEB", "OBJECT_ID": "1993-036YF", "EPOCH": "2025-12-08T06:09:40.286592", "MEAN_MOTION": 14.57442423, "ECCENTRICITY": 0.00143295, "INCLINATION": 74.0288, "RA_OF_ASC_NODE": 157.3055, "ARG_OF_PERICENTER": 261.3162, "MEAN_ANOMALY": 278.3046, "EPHEMERIS_TYPE": 0, "CLASSIFICATION_TYPE": "U", "NORAD_CAT_ID": 34685, "ELEMENT_SET_NO": 999, "REV_AT_EPOCH": 88466, "BSTAR": 0.0013454079, "MEAN_MOTION_DOT": 6.092e-05, "MEAN_MOTION_DDOT": 0}, "tle": {"line1": "1 34685U 93036YF  25342.25671628  .00006092  00000+0  13454-2 0  9995", "line2": "2 34685  74.0288 157.3055 0014329 261.3162 278.3046 14.57442423884661"}}, "geometry": {"type": "Point", "coordinates": [-22.205292321470335, -4.891161930336879]}}, {"type": "Feature", "properties": {"norad_id": 34689, "name": "COSMOS 2251 DEB", "group": "cosmos-2251-debris", "lat": 66.94992065532037, "lon": -87.55213017787403, "alt_km": 983.3368555805164, "timestamp": "2025-12-08T17:43:05.332829+00:00", "meta": {"OBJECT_NAME": "COSMOS 2251 DEB", "OBJECT_ID": "1993-036YK", "EPOCH": "2025-12-07T17:42:44.786304", "MEAN_MOTION": 14.04340408, "ECCENTRICITY": 0.02290881, "INCLINATION": 74.0894, "RA_OF_ASC_NODE": 232.0928, "ARG_OF_PERICENTER": 302.0324, "MEAN_ANOMALY": 114.2751, "EPHEMERIS_TYPE": 0, "CLASSIFICATION_TYPE": "U", "NORAD_CAT_ID": 34689, "ELEMENT_SET_NO": 999, "REV_AT_EPOCH": 84271, "BSTAR": 0.0067174131, "MEAN_MOTION_DOT": 0.00013501, "MEAN_MOTION_DDOT": 0}, "tle": {"line1": "1 34689U 93036YK  25341.73801836  .00013501  00000+0  67174-2 0  9998", "line2": "2 34689  74.0894 232.0928 0229088 302.0324 114.2751 14.04340408842714"}}, "geometry": {"type": "Point", "coordinates": [-87.55213017787403, 66.94992065532037]}}, {"type": "Feature", "properties": {"norad_id": 34721, "name": "COSMOS 2251 DEB", "group": "cosmos-2251-debris", "lat": -26.794794549863763, "lon": 161.566159406497, "alt_km": 838.2033539771446, "timestamp": "2025-12-08T17:43:05.332840+00:00", "meta": {"OBJECT_NAME": "COSMOS 2251 DEB", "OBJECT_ID": "1993-036YP", "EPOCH": "2025-12-07T23:39:26.180352", "MEAN_MOTION": 13.96814529, "ECCENTRICITY": 0.02238624, "INCLINATION": 73.9236, "RA_OF_ASC_NODE": 334.4971, "ARG_OF_PERICENTER": 274.3054, "MEAN_ANOMALY": 113.1719, "EPHEMERIS_TYPE": 0, "CLASSIFICATION_TYPE": "U", "NORAD_CAT_ID": 34721, "ELEMENT_SET_NO": 999, "REV_AT_EPOCH": 85083, "BSTAR": 0.0021154333, "MEAN_MOTION_DOT": 3.608e-05, "MEAN_MOTION_DDOT": 0}, "tle": {"line1": "1 34721U 93036YP  25341.98571968  .00003608  00000+0  21154-2 0  9997", "line2": "2 34721  73.9236 334.4971 0223862 274.3054 113.1719 13.96814529850833"}}, "geometry": {"type": "Point", "coordinates": [161.566159406497, -26.794794549863763]}}, {"type": "Feature", "properties": {"norad_id": 34722, "name": "COSMOS 2251 DEB", "group": "cosmos-2251-debris", "lat": -35.57389122925154, "lon": 175.14896971117642, "alt_km": 783.40793675242, "timestamp": "2025-12-08T17:43:05.332851+00:00", "meta": {"OBJECT_NAME": "COSMOS 2251 DEB", "OBJECT_ID": "1993-036YQ", "EPOCH": "2025-12-08T01:39:18.911232", "MEAN_MOTION": 14.11910631, "ECCENTRICITY": 0.0167316, "INCLINATION": 73.8726, "RA_OF_ASC_NODE": 344.3987, "ARG_OF_PERICENTER": 270.7554, "MEAN_ANOMALY": 147.3377, "EPHEMERIS_TYPE": 0, "CLASSIFICATION_TYPE": "U", "NORAD_CAT_ID": 34722, "ELEMENT_SET_NO": 999, "REV_AT_EPOCH": 86179, "BSTAR": 0.0012190185, "MEAN_MOTION_DOT": 2.515e-05, "MEAN_MOTION_DDOT": 0}, "tle": {"line1": "1 34722U 93036YQ  25342.06896888  .00002515  00000+0  12190-2 0  9995", "line2": "2 34722  73.8726 344.3987 0167316 270.7554 147.3377 14.11910631861795"}}, "geometry": {"type": "Point", "coordinates": [175.14896971117642, -35.57389122925154]}}, {"type": "Feature", "properties": {"norad_id": 34726, "name": "COSMOS 2251 DEB", "group": "cosmos-2251-debris", "lat": -69.51630943302494, "lon": -56.095090915059615, "alt_km": 723.6102562869337, "timestamp": "2025-12-08T17:43:05.332861+00:00", "meta": {"OBJECT_NAME": "COSMOS 2251 DEB", "OBJECT_ID": "1993-036YU", "EPOCH": "2025-12-08T03:16:01.526592", "MEAN_MOTION": 14.59454696, "ECCENTRICITY": 0.00422217, "INCLINATION": 74.0291, "RA_OF_ASC_NODE": 355.1057, "ARG_OF_PERICENTER": 147.3726, "MEAN_ANOMALY": 213.0062, "EPHEMERIS_TYPE": 0, "CLASSIFICATION_TYPE": "U", "NORAD_CAT_ID": 34726, "ELEMENT_SET_NO": 999, "REV_AT_EPOCH": 88435, "BSTAR": 0.00055475228, "MEAN_MOTION_DOT": 2.634e-05, "MEAN_MOTION_DDOT": 0}, "tle": {"line1": "1 34726U 93036YU  25342.13612878  .00002634  00000+0  55475-3 0  9998", "line2": "2 34726  74.0291 355.1057 0042221 147.3726 213.0062 14.59454696884359"}}, "geometry": {"type": "Point", "coordinates": [-56.095090915059615, -69.51630943302494]}}, {"type": "Feature", "properties": {"norad_id": 34728, "name": "COSMOS 2251 DEB", "group": "cosmos-2251-debris", "lat": -3.001636865007458, "lon": -101.31347854002311, "alt_km": 647.605357000386, "timestamp": "2025-12-08T17:43:05.332871+00:00", "meta": {"OBJECT_NAME": "COSMOS 2251 DEB", "OBJECT_ID": "1993-036YW", "EPOCH": "2025-12-08T04:40:21.187488", "MEAN_MOTION": 14.70775682, "ECCENTRICITY": 0.00410887, "INCLINATION": 74.018, "RA_OF_ASC_NODE": 260.6035, "ARG_OF_PERICENTER": 59.4394, "MEAN_ANOMALY": 301.0821, "EPHEMERIS_TYPE": 0, "CLASSIFICATION_TYPE": "U", "NORAD_CAT_ID": 34728, "ELEMENT_SET_NO": 999, "REV_AT_EPOCH": 88733, "BSTAR": 0.0011226976, "MEAN_MOTION_DOT": 6.918e-05, "MEAN_MOTION_DDOT": 0}, "tle": {"line1": "1 34728U 93036YW  25342.19468967  .00006918  00000+0  11227-2 0  9999", "line2": "2 34728  74.0180 260.6035 0041088  59.4394 301.0821 14.70775682887334"}}, "geometry": {"type": "Point", "coordinates": [-101.31347854002311, -3.001636865007458]}}, {"type": "Feature", "properties": {"norad_id": 34729, "name": "COSMOS 2251 DEB", "group": "cosmos-2251-debris", "lat": -19.29417671344395, "lon": -167.88673800896808, "alt_km": 623.2782417408353, "timestamp": "2025-12-08T17:43:05.332882+00:00", "meta": {"OBJECT_NAME": "COSMOS 2251 DEB", "OBJECT_ID": "1993-036YX", "EPOCH": "2025-12-08T06:02:24.235296", "MEAN_MOTION": 14.82599836, "ECCENTRICITY": 0.00119063, "INCLINATION": 74.0182, "RA_OF_ASC_NODE": 7.318, "ARG_OF_PERICENTER": 129.1596, "MEAN_ANOMALY": 354.6856, "EPHEMERIS_TYPE": 0, "CLASSIFICATION_TYPE": "U", "NORAD_CAT_ID": 34729, "ELEMENT_SET_NO": 999, "REV_AT_EPOCH": 88391, "BSTAR": 0.002089166, "MEAN_MOTION_DOT": 0.00016847, "MEAN_MOTION_DDOT": 0}, "tle": {"line1": "1 34729U 93036YX  25342.25166939  .00016847  00000+0  20892-2 0  9991", "line2": "2 34729  74.0182   7.3180 0011906 129.1596 354.6856 14.82599836883919"}}, "geometry": {"type": "Point", "coordinates": [-167.88673800896808, -19.29417671344395]}}, {"type": "Feature", "properties": {"norad_id": 34732, "name": "COSMOS 2251 DEB", "group": "cosmos-2251-debris", "lat": -33.72946071893038, "lon": -68.32518915827127, "alt_km": 717.3651942157658, "timestamp": "2025-12-08T17:43:05.332892+00:00", "meta": {"OBJECT_NAME": "COSMOS 2251 DEB", "OBJECT_ID": "1993-036ZA", "EPOCH": "2025-12-08T02:37:41.135232", "MEAN_MOTION": 14.47291723, "ECCENTRICITY": 0.00404623, "INCLINATION": 74.0449, "RA_OF_ASC_NODE": 101.8377, "ARG_OF_PERICENTER": 253.7205, "MEAN_ANOMALY": 287.1114, "EPHEMERIS_TYPE": 0, "CLASSIFICATION_TYPE": "U", "NORAD_CAT_ID": 34732, "ELEMENT_SET_NO": 999, "REV_AT_EPOCH": 88076, "BSTAR": 0.0002544242, "MEAN_MOTION_DOT": 9.13e-06, "MEAN_MOTION_DDOT": 0}, "tle": {"line1": "1 34732U 93036ZA  25342.10950388  .00000913  00000+0  25442-3 0  9992", "line2": "2 34732  74.0449 101.8377 0040462 253.7205 287.1114 14.47291723880769"}}, "geometry": {"type": "Point", "coordinates": [-68.32518915827127, -33.72946071893038]}}]}